ONEWEB-0230             
1 48769U 21045C   24104.89806821 -.00000088  00000+0 -26852-3 0  9992
2 48769  87.9019  57.3154 0001850  78.0406 282.0932 13.15549548140235
ONEWEB-0237             
1 48770U 21045D   24104.88696970 -.00000064  00000+0 -20350-3 0  9996
2 48770  87.9029  57.2447 0001460  86.4551 273.6747 13.15549601139950
ONEWEB-0235             
1 48771U 21045E   24104.86161085  .00000177  00000+0  43632-3 0  9990
2 48771  87.9020  57.2652 0001115  85.2404 274.8853 13.15550688139948
ONEWEB-0242             
1 48772U 21045F   24104.85526514  .00000195  00000+0  48355-3 0  9999
2 48772  87.9020  57.2554 0001702  79.2670 280.8651 13.15550667139984
ONEWEB-0241             
1 48773U 21045G   24104.84260293  .00000070  00000+0  15111-3 0  9994
2 48773  87.9027  57.2990 0001731  96.3716 263.7611 13.15549092139895
ONEWEB-0243             
1 48774U 21045H   24104.87427916  .00000127  00000+0  30418-3 0  9995
2 48774  87.9032  57.2508 0001451  90.8365 269.2932 13.15551148139921
ONEWEB-0222             
1 48775U 21045J   24104.85765571  .00000173  00000+0  42443-3 0  9998
2 48775  87.9019  57.2650 0001680  88.7949 271.3374 13.15550691139963
ONEWEB-0244             
1 48776U 21045K   24104.88380146  .00000010  00000+0 -77294-5 0  9998
2 48776  87.9017  57.2430 0001709  75.2067 284.9252 13.15549553140537
